OBJECT_NAME,OBJECT_ID,EPOCH,MEAN_MOTION,ECCENTRICITY,INCLINATION,RA_OF_ASC_NODE,ARG_OF_PERICENTER,MEAN_ANOMALY,EPHEMERIS_TYPE,CLASSIFICATION_TYPE,NORAD_CAT_ID,ELEMENT_SET_NO,REV_AT_EPOCH,BSTAR,MEAN_MOTION_DOT,MEAN_MOTION_DDOT
BEIDOU-3 M28 (C50),2023-207A,2026-06-07T02:19:46.441056,1.86229766,.00035279,55.7441,62.6436,343.0985,16.9178,0,U,58654,999,1665,0,-.41E-6,0
BEIDOU-3 M26 (C48),2023-207B,2026-06-06T21:28:10.130880,1.86229767,.0003491,55.7459,62.6370,317.5476,42.4536,0,U,58655,999,1663,0,-.41E-6,0
GSAT0225 (GALILEO 29),2024-079A,2026-06-07T17:27:12.904416,1.70474089,.0001801,55.1140,101.3451,291.6432,248.2386,0,U,59598,999,1315,0,.25E-6,0
GSAT0227 (GALILEO 30),2024-079C,2026-06-07T00:44:32.815104,1.70474095,.0001893,55.1089,101.3625,43.8479,316.1405,0,U,59600,999,1319,0,.24E-6,0
GSAT0232 (GALILEO 32),2024-167A,2026-06-07T20:22:34.230720,1.70474473,.00059638,55.1875,221.5705,224.5707,133.0586,0,U,61182,999,1071,0,.43E-6,0
GSAT0226 (GALILEO 31),2024-167B,2026-06-08T10:22:56.405856,1.70474396,.0002749,55.1862,221.5616,222.4948,224.6354,0,U,61183,999,1070,0,.44E-6,0
BEIDOU-3 M25 (C47),2024-168B,2026-06-08T09:14:41.189280,1.86230106,.0003038,54.4820,302.5490,304.0790,92.6414,0,U,61186,999,1162,0,-.58E-6,0
BEIDOU-3 M27 (C49),2024-168C,2026-06-08T03:08:11.268672,1.86230199,.00017036,54.4776,302.5409,48.1833,312.9252,0,U,61187,999,909,0,-.57E-6,0
GPS BIII-7  (PRN 01),2024-242A,2026-06-07T20:53:43.918080,2.00571460,.00173904,54.8519,334.5596,4.1176,357.6425,0,U,62339,999,1107,0,-.62E-6,0
QZS-6 (QZSS/PRN 200),2025-023A,2026-06-08T12:06:05.020128,1.00273771,.0001959,0.0307,52.7580,32.3546,83.8043,0,U,62876,999,486,0,-.218E-5,0
COSMOS 2584 (704K),2025-042A,2026-06-08T05:23:06.412128,2.13103875,.0005828,65.0792,73.1067,228.4476,131.5246,0,U,63130,999,985,0,-.15E-6,0
GPS BIII-8  (PRN 21),2025-116A,2026-06-04T08:47:30.944832,2.00577081,.00084526,55.2259,31.6468,337.8257,196.1658,0,U,64202,999,761,0,-.73E-6,0
COSMOS 2596 (708K),2025-206B,2026-06-08T12:49:57.809568,2.13100734,.0011119,64.6398,315.2872,313.0579,41.4208,0,U,65590,999,572,0,-.32E-6,0
GSAT0233 (GALILEO 33),2025-302A,2026-06-06T15:54:07.553088,1.70474269,.0001324,54.3305,102.4316,236.8649,300.4651,0,U,67160,999,294,0,.23E-6,0
GSAT0234 (GALILEO 34),2025-302C,2026-06-03T20:33:01.967328,1.70474390,.0003271,54.3286,102.5103,302.9496,132.1778,0,U,67162,999,295,0,.1E-6,0
GPS BIII-9  (PRN 20),2026-017A,2026-06-05T05:33:50.638176,2.00571538,.00226637,55.0812,89.2351,257.5579,102.1794,0,U,67588,999,43137,0,.4E-7,0
GPS BIII-10 (PRN 13),2026-087A,2026-06-07T10:32:17.680992,2.00569573,.00209312,54.9638,208.1735,107.2972,251.8874,0,U,68791,999,63,0,.57E-6,0
